{"type": "FeatureCollection", "features": [ {"type": "Feature", "properties": {"norad_id": 32169, "name": "FENGYUN 1C DEB", "group": "fengyun-1c-debris", "lat": 10.590161242720672, "lon": 1.369150002996196, "alt_km": 658.307271224633, "timestamp": "2025-12-16T21:38:57.460435+00:00", "meta": {"OBJECT_NAME": "FENGYUN 1C DEB", "OBJECT_ID": "1999-025CTP", "EPOCH": "2025-12-16T06:09:39.932352", "MEAN_MOTION": 14.67928737, "ECCENTRICITY": 0.00335723, "INCLINATION": 98.5565, "RA_OF_ASC_NODE": 179.0819, "ARG_OF_PERICENTER": 108.224, "MEAN_ANOMALY": 252.2623, "EPHEMERIS_TYPE": 0, "CLASSIFICATION_TYPE": "U", "NORAD_CAT_ID": 32169, "ELEMENT_SET_NO": 999, "REV_AT_EPOCH": 96670, "BSTAR": 0.0029551468, "MEAN_MOTION_DOT": 0.00017037, "MEAN_MOTION_DDOT": 0}, "tle": {"line1": "1 32169U 99025CTP 25350.25671218  .00017037  00000+0  29551-2 0  9994", "line2": "2 32169  98.5565 179.0819 0033572 108.2240 252.2623 14.67928737966707"}}, "geometry": {"type": "Point", "coordinates": [1.369150002996196, 10.590161242720672]}}, {"type": "Feature", "properties": {"norad_id": 32171, "name": "FENGYUN 1C DEB", "group": "fengyun-1c-debris", "lat": -40.00625298649189, "lon": 58.03120603920714, "alt_km": 1358.7734714986864, "timestamp": "2025-12-16T21:38:57.460445+00:00", "meta": {"OBJECT_NAME": "FENGYUN 1C DEB", "OBJECT_ID": "1999-025CTR", "EPOCH": "2025-12-12T23:36:33.645600", "MEAN_MOTION": 13.42566828, "ECCENTRICITY": 0.04886846, "INCLINATION": 102.8031, "RA_OF_ASC_NODE": 244.0575, "ARG_OF_PERICENTER": 5.4514, "MEAN_ANOMALY": 9.5388, "EPHEMERIS_TYPE": 0, "CLASSIFICATION_TYPE": "U", "NORAD_CAT_ID": 32171, "ELEMENT_SET_NO": 999, "REV_AT_EPOCH": 60619, "BSTAR": 0.0065627296, "MEAN_MOTION_DOT": 7.521e-05, "MEAN_MOTION_DDOT": 0}, "tle": {"line1": "1 32171U 99025CTR 25346.98372275  .00007521  00000+0  65627-2 0  9994", "line2": "2 32171 102.8031 244.0575 0488684   5.4514   9.5388 13.42566828606195"}}, "geometry": {"type": "Point", "coordinates": [58.03120603920714, -40.00625298649189]}}, {"type": "Feature", "properties": {"norad_id": 32174, "name": "FENGYUN 1C DEB", "group": "fengyun-1c-debris", "lat": 43.56001566919324, "lon": -118.8057846869578, "alt_km": 842.4935852717172, "timestamp": "2025-12-16T21:38:57.460456+00:00", "meta": {"OBJECT_NAME": "FENGYUN 1C DEB", "OBJECT_ID": "1999-025CTU", "EPOCH": "2025-12-14T21:34:34.410432", "MEAN_MOTION": 14.17923145, "ECCENTRICITY": 0.01505704, "INCLINATION": 98.6008, "RA_OF_ASC_NODE": 50.9784, "ARG_OF_PERICENTER": 239.665, "MEAN_ANOMALY": 118.9562, "EPHEMERIS_TYPE": 0, "CLASSIFICATION_TYPE": "U", "NORAD_CAT_ID": 32174, "ELEMENT_SET_NO": 999, "REV_AT_EPOCH": 64136, "BSTAR": 0.00031806491, "MEAN_MOTION_DOT": 6.84e-06, "MEAN_MOTION_DDOT": 0}, "tle": {"line1": "1 32174U 99025CTU 25348.89900938  .00000684  00000+0  31806-3 0  9998", "line2": "2 32174  98.6008  50.9784 0150570 239.6650 118.9562 14.17923145641361"}}, "geometry": {"type": "Point", "coordinates": [-118.8057846869578, 43.56001566919324]}}, {"type": "Feature", "properties": {"norad_id": 32175, "name": "FENGYUN 1C DEB", "group": "fengyun-1c-debris", "lat": 41.98777467133413, "lon": -28.749988487141117, "alt_km": 908.4565410616897, "timestamp": "2025-12-16T21:38:57.460466+00:00", "meta": {"OBJECT_NAME": "FENGYUN 1C DEB", "OBJECT_ID": "1999-025CTV", "EPOCH": "2025-12-16T05:57:13.876128", "MEAN_MOTION": 13.94834962, "ECCENTRICITY": 0.01520304, "INCLINATION": 98.8231, "RA_OF_ASC_NODE": 338.6601, "ARG_OF_PERICENTER": 313.508, "MEAN_ANOMALY": 45.3528, "EPHEMERIS_TYPE": 0, "CLASSIFICATION_TYPE": "U", "NORAD_CAT_ID": 32175, "ELEMENT_SET_NO": 999, "REV_AT_EPOCH": 59889, "BSTAR": 0.0023375995, "MEAN_MOTION_DOT": 3.412e-05, "MEAN_MOTION_DDOT": 0}, "tle": {"line1": "1 32175U 99025CTV 25350.24807727  .00003412  00000+0  23376-2 0  9997", "line2": "2 32175  98.8231 338.6601 0152030 313.5080  45.3528 13.94834962598894"}}, "geometry": {"type": "Point", "coordinates": [-28.749988487141117, 41.98777467133413]}}, {"type": "Feature", "properties": {"norad_id": 32177, "name": "FENGYUN 1C DEB", "group": "fengyun-1c-debris", "lat": 14.101285289987093, "lon": -1.7403470157275598, "alt_km": 671.3620398442408, "timestamp": "2025-12-16T21:38:57.460476+00:00", "meta": {"OBJECT_NAME": "FENGYUN 1C DEB", "OBJECT_ID": "1999-025CTX", "EPOCH": "2025-12-16T06:44:36.881088", "MEAN_MOTION": 14.56264371, "ECCENTRICITY": 0.00517454, "INCLINATION": 99.0442, "RA_OF_ASC_NODE": 359.8799, "ARG_OF_PERICENTER": 34.5509, "MEAN_ANOMALY": 325.9031, "EPHEMERIS_TYPE": 0, "CLASSIFICATION_TYPE": "U", "NORAD_CAT_ID": 32177, "ELEMENT_SET_NO": 999, "REV_AT_EPOCH": 71090, "BSTAR": 0.00098402514, "MEAN_MOTION_DOT": 4.381e-05, "MEAN_MOTION_DDOT": 0}, "tle": {"line1": "1 32177U 99025CTX 25350.28098242  .00004381  00000+0  98403-3 0  9997", "line2": "2 32177  99.0442 359.8799 0051745  34.5509 325.9031 14.56264371710907"}}, "geometry": {"type": "Point", "coordinates": [-1.7403470157275598, 14.101285289987093]}}, {"type": "Feature", "properties": {"norad_id": 32178, "name": "FENGYUN 1C DEB", "group": "fengyun-1c-debris", "lat": 79.64151678170596, "lon": -102.53247186731059, "alt_km": 858.8031824955542, "timestamp": "2025-12-16T21:38:57.460486+00:00", "meta": {"OBJECT_NAME": "FENGYUN 1C DEB", "OBJECT_ID": "1999-025CTY", "EPOCH": "2025-12-15T06:24:40.570272", "MEAN_MOTION": 14.23003911, "ECCENTRICITY": 0.00945392, "INCLINATION": 100.3042, "RA_OF_ASC_NODE": 351.1263, "ARG_OF_PERICENTER": 316.4626, "MEAN_ANOMALY": 42.9112, "EPHEMERIS_TYPE": 0, "CLASSIFICATION_TYPE": "U", "NORAD_CAT_ID": 32178, "ELEMENT_SET_NO": 999, "REV_AT_EPOCH": 64039, "BSTAR": 0.00099014115, "MEAN_MOTION_DOT": 2.277e-05, "MEAN_MOTION_DDOT": 0}, "tle": {"line1": "1 32178U 99025CTY 25349.26713623  .00002277  00000+0  99014-3 0  9992", "line2": "2 32178 100.3042 351.1263 0094539 316.4626  42.9112 14.23003911640397"}}, "geometry": {"type": "Point", "coordinates": [-102.53247186731059, 79.64151678170596]}}, {"type": "Feature", "properties": {"norad_id": 32179, "name": "FENGYUN 1C DEB", "group": "fengyun-1c-debris", "lat": 3.2932881954987216, "lon": -139.8332252364306, "alt_km": 777.8881165874855, "timestamp": "2025-12-16T21:38:57.460496+00:00", "meta": {"OBJECT_NAME": "FENGYUN 1C DEB", "OBJECT_ID": "1999-025CTZ", "EPOCH": "2025-12-15T21:42:56.102400", "MEAN_MOTION": 14.03682497, "ECCENTRICITY": 0.01455483, "INCLINATION": 98.909, "RA_OF_ASC_NODE": 38.6723, "ARG_OF_PERICENTER": 181.1118, "MEAN_ANOMALY": 358.9685, "EPHEMERIS_TYPE": 0, "CLASSIFICATION_TYPE": "U", "NORAD_CAT_ID": 32179, "ELEMENT_SET_NO": 999, "REV_AT_EPOCH": 65772, "BSTAR": 0.00027251601, "MEAN_MOTION_DOT": 4.27e-06, "MEAN_MOTION_DDOT": 0}, "tle": {"line1": "1 32179U 99025CTZ 25349.90481600  .00000427  00000+0  27252-3 0  9991", "line2": "2 32179  98.9090  38.6723 0145548 181.1118 358.9685 14.03682497657721"}}, "geometry": {"type": "Point", "coordinates": [-139.8332252364306, 3.2932881954987216]}}, {"type": "Feature", "properties": {"norad_id": 32180, "name": "FENGYUN 1C DEB", "group": "fengyun-1c-debris", "lat": 41.756252387207816, "lon": -140.228387813711, "alt_km": 904.203133163991, "timestamp": "2025-12-16T21:38:57.460507+00:00", "meta": {"OBJECT_NAME": "FENGYUN 1C DEB", "OBJECT_ID": "1999-025CUA", "EPOCH": "2025-12-16T08:55:54.370848", "MEAN_MOTION": 13.82328663, "ECCENTRICITY": 0.01364724, "INCLINATION": 99.5855, "RA_OF_ASC_NODE": 30.5564, "ARG_OF_PERICENTER": 200.8926, "MEAN_ANOMALY": 182.3424, "EPHEMERIS_TYPE": 0, "CLASSIFICATION_TYPE": "U", "NORAD_CAT_ID": 32180, "ELEMENT_SET_NO": 999, "REV_AT_EPOCH": 94318, "BSTAR": 0.00012246674, "MEAN_MOTION_DOT": 9.5e-07, "MEAN_MOTION_DDOT": 0}, "tle": {"line1": "1 32180U 99025CUA 25350.37215707  .00000095  00000+0  12247-3 0  9998", "line2": "2 32180  99.5855  30.5564 0136472 200.8926 182.3424 13.82328663943181"}}, "geometry": {"type": "Point", "coordinates": [-140.228387813711, 41.756252387207816]}}, {"type": "Feature", "properties": {"norad_id": 32181, "name": "FENGYUN 1C DEB", "group": "fengyun-1c-debris", "lat": 80.51643928067232, "lon": 6.971394265476518, "alt_km": 648.517209435774, "timestamp": "2025-12-16T21:38:57.460517+00:00", "meta": {"OBJECT_NAME": "FENGYUN 1C DEB", "OBJECT_ID": "1999-025CUB", "EPOCH": "2025-12-15T12:32:13.278624", "MEAN_MOTION": 14.56053315, "ECCENTRICITY": 0.00735387, "INCLINATION": 99.4732, "RA_OF_ASC_NODE": 93.6791, "ARG_OF_PERICENTER": 77.1634, "MEAN_ANOMALY": 344.4245, "EPHEMERIS_TYPE": 0, "CLASSIFICATION_TYPE": "U", "NORAD_CAT_ID": 32181, "ELEMENT_SET_NO": 999, "REV_AT_EPOCH": 96761, "BSTAR": 0.00056831575, "MEAN_MOTION_DOT": 2.536e-05, "MEAN_MOTION_DDOT": 0}, "tle": {"line1": "1 32181U 99025CUB 25349.52237591  .00002536  00000+0  56832-3 0  9999", "line2": "2 32181  99.4732  93.6791 0073538  77.1634 344.4245 14.56053315967618"}}, "geometry": {"type": "Point", "coordinates": [6.971394265476518, 80.51643928067232]}}, {"type": "Feature", "properties": {"norad_id": 32183, "name": "FENGYUN 1C DEB", "group": "fengyun-1c-debris", "lat": -63.999857104398586, "lon": 60.2994925289287, "alt_km": 878.9524829289285, "timestamp": "2025-12-16T21:38:57.460527+00:00", "meta": {"OBJECT_NAME": "FENGYUN 1C DEB", "OBJECT_ID": "1999-025CUD", "EPOCH": "2025-12-12T08:58:08.411808", "MEAN_MOTION": 14.10083628, "ECCENTRICITY": 0.00428392, "INCLINATION": 98.7133, "RA_OF_ASC_NODE": 37.5876, "ARG_OF_PERICENTER": 61.9677, "MEAN_ANOMALY": 298.5817, "EPHEMERIS_TYPE": 0, "CLASSIFICATION_TYPE": "U", "NORAD_CAT_ID": 32183, "ELEMENT_SET_NO": 999, "REV_AT_EPOCH": 72759, "BSTAR": 0.00097760339, "MEAN_MOTION_DOT": 1.7e-05, "MEAN_MOTION_DDOT": 0}, "tle": {"line1": "1 32183U 99025CUD 25346.37370847  .00001700  00000+0  97760-3 0  9990", "line2": "2 32183  98.7133  37.5876 0042839  61.9677 298.5817 14.10083628727591"}}, "geometry": {"type": "Point", "coordinates": [60.2994925289287, -63.999857104398586]}}]}